0 SAFIR 2
1 25399U 98043F   19047.87888987 -.00000020 +00000-0 +99553-5 0  9995
2 25399 098.6449 350.0096 0001114 341.8640 018.2499 14.24633025070040
0 SAFIR 2
1 25399U 98043F   19048.44075649 -.00000023  00000-0  89109-5 0  9991
2 25399  98.6450 350.5626 0001083 339.8051  20.3085 14.24633045 71154
0 SL-16 R/B
1 25400U 98043G   19047.92263540 -.00000034 +00000-0 +39516-5 0  9994
2 25400 098.5615 349.1423 0009174 319.5252 040.5244 14.25437547071707
0 SL-16 DEB
1 25401U 98043H   19047.81756753 +.00000120 +00000-0 +10924-3 0  9991
2 25401 098.5643 343.2776 0162839 210.9006 210.7596 13.93720384047515
0 SL-16 DEB
1 25401U 98043H   19048.82227406  .00000162  00000-0  13725-3 0  9999
2 25401  98.5644 344.2091 0162875 208.1041 211.7787 13.93720615 47874
0 SL-16 DEB
1 25402U 98043J   19047.91765508 -.00000100 +00000-0 -36522-4 0  9994
2 25402 099.3532 025.1060 0155711 070.2656 343.7429 13.95831881049053
0 SL-16 DEB
1 25403U 98043K   19047.90840375 -.00000012 +00000-0 +21218-4 0  9997
2 25403 098.5359 202.9461 0213554 030.7407 119.4499 13.77728180035650
0 CHINASAT 5B (SINOSAT 1)
1 25404U 98044A   19047.84662565 -.00000191 +00000-0 +00000-0 0  9995
2 25404 005.5591 063.0073 0010051 214.1991 171.0865 00.99190128075352
0 CZ-3B R/B
1 25405U 98044B   19047.82274685 -.00000204 +00000-0 -77948-3 0  9990
2 25405 018.3629 243.6877 7156978 111.9443 359.7573 02.25613554169626
0 CZ-3B R/B
1 25405U 98044B   19048.33351451 -.00000211  00000-0 -77034-3 0  9998
2 25405  18.3634 243.4990 7156914 112.2876  54.6041  2.25613494169691
0 COSMOS 2360
1 25406U 98045A   19048.56128342 -.00000177  00000-0 -69618-4 0  9997
2 25406  70.8524 170.5661 0006053 331.1119  28.9665 14.12540001 60307
0 COSMOS 2360
1 25406U 98045A   19047.85313199 -.00000176 +00000-0 -69040-4 0  9992
2 25406 070.8524 172.0581 0006001 332.1767 027.9032 14.12540160059983
0 SL-16 R/B
1 25407U 98045B   19047.89405267 +.00000145 +00000-0 +97908-4 0  9993
2 25407 071.0103 200.1302 0008078 341.7934 018.2899 14.15782024062216
0 SL-16 DEB
1 25409U 98045C   19047.95807557 +.00000013 +00000-0 +50251-4 0  9994
2 25409 071.0785 221.6760 0191593 109.0152 007.7505 13.74443695030957
0 SL-16 DEB
1 25409U 98045C   19048.91071101  .00000006  00000-0  43601-4 0  9992
2 25409  71.0786 219.8129 0191570 107.6323  41.4056 13.74443800 31354
0 SL-16 DEB
1 25410U 98045D   19048.89950375 -.00000001  00000-0  40627-4 0  9991
2 25410  70.9782 231.6489 0210500 314.5370 159.0242 13.70847001 28432
0 SL-16 DEB
1 25410U 98045D   19047.95052705 +.00000007 +00000-0 +48655-4 0  9991
2 25410 070.9782 233.5034 0210472 315.8684 155.7831 13.70846928028028
0 SL-16 DEB
1 25411U 98045E   19047.90607464 +.00000009 +00000-0 +50465-4 0  9999
2 25411 070.9853 244.6107 0213770 288.3840 069.4119 13.70640742027838
0 SL-16 DEB
1 25411U 98045E   19048.85480352  .00000004  00000-0  46044-4 0  9992
2 25411  70.9853 242.7579 0213780 287.0583  70.7196 13.70640810 28243
0 SL-16 DEB
1 25412U 98045F   19047.78936333 +.00000014 +00000-0 +50714-4 0  9999
2 25412 071.0801 180.8594 0183684 106.0230 002.8753 13.76137764031958
0 ORBCOMM FM 17
1 25413U 98046A   19047.90438045 +.00000045 +00000-0 +69866-4 0  9994
2 25413 044.9964 313.2040 0001835 284.2645 075.7997 14.30783542071766
0 ORBCOMM FM 17
1 25413U 98046A   19048.53280044  .00000032  00000-0  64879-4 0  9993
2 25413  44.9963 310.2590 0001811 286.2048  73.8598 14.30783756 72028
0 ORBCOMM FM 18
1 25414U 98046B   19047.91308851 +.00000274 +00000-0 +15074-3 0  9992
2 25414 044.9950 272.5535 0003113 264.3867 095.6624 14.32828841072295
0 ORBCOMM FM 19
1 25415U 98046C   19047.87885866 +.00000052 +00000-0 +70101-4 0  9991
2 25415 044.9955 273.1009 0001722 256.7262 175.3955 14.32790727072285
0 ORBCOMM FM 19
1 25415U 98046C   19048.85459892  .00000035  00000-0  63772-4 0  9993
2 25415  44.9954 268.5131 0001730 258.4192 171.4790 14.32791000 72603
0 ORBCOMM FM 20
1 25416U 98046D   19047.87189871 +.00000060 +00000-0 +72791-4 0  9991
2 25416 044.9951 273.3570 0001060 045.3104 314.7828 14.32795538072406
0 ORBCOMM FM 16
1 25417U 98046E   19047.93560281 +.00000049 +00000-0 +68408-4 0  9994
2 25417 044.9954 274.5536 0002970 286.1437 073.9082 14.33053137072296
0 ORBCOMM FM 16
1 25417U 98046E   19048.56302627  .00000055  00000-0  70826-4 0  9996
2 25417  44.9953 271.6022 0002951 288.2932  71.7592 14.33053413 72553
0 ORBCOMM FM 15
1 25418U 98046F   19047.89865944 +.00000063 +00000-0 +74069-4 0  9990
2 25418 044.9984 275.1676 0002765 297.1231 138.8442 14.32826286072280
0 ORBCOMM FM 14
1 25419U 98046G   19047.90860383 +.00000049 +00000-0 +68841-4 0  9990
2 25419 044.9980 274.9304 0001332 299.7770 139.2568 14.32832035072280
0 ORBCOMM FM 14
1 25419U 98046G   19048.89317068  .00000057  00000-0  71645-4 0  9991
2 25419  44.9979 270.3010 0001273 301.5549 180.9732 14.32832361 72606
0 ORBCOMM FM 13
1 25420U 98046H   19047.85388147 +.00000019 +00000-0 +58173-4 0  9993
2 25420 044.9982 275.9407 0003451 271.4209 088.6242 14.32740850071342
0 PEGASUS DEB
1 25442U 94029ADX 19047.92744760 +.00000377 +00000-0 +77063-4 0  9995
2 25442 081.7671 033.7431 0284853 117.3122 245.7376 14.35541298166141
0 SL-14 DEB
1 25444U 87068BX  19048.48691881  .00000177  00000-0  12308-3 0  9997
2 25444  82.5579 199.5939 0019219 130.3137 293.9405 13.93556394 53167
0 SL-14 DEB
1 25454U 87068CC  19048.72532097 -.00000330  00000-0 -20393-3 0  9994
2 25454  82.1716 296.6055 0082868 265.8327  93.3370 14.05950271262509
0 ST 1
1 25460U 98049A   19047.84513618 -.00000157 +00000-0 +00000-0 0  9998
2 25460 005.6323 062.9743 0009920 239.0294 264.0589 00.98747378018633
0 ARIANE 44P R/B
1 25461U 98049B   19047.43491521 +.00003005 +00000-0 +54399-3 0  9999
2 25461 004.0793 118.5157 6499950 158.5319 250.6375 03.32467563208406
0 ASTRA 2A
1 25462U 98050A   19047.85434191 -.00000316 +00000-0 +00000-0 0  9998
2 25462 000.5000 099.8670 0003481 211.8304 242.4376 01.00271599019529
0 ASTRA 2A
1 25462U 98050A   19048.51328289 -.00000318  00000-0  00000+0 0  9993
2 25462   0.5016  99.8589 0003464 213.3218 118.8212  1.00271235 74902
0 SL-12 R/B(2)
1 25465U 98050D   19048.44745314 -.00000091  00000-0  00000+0 0  9998
2 25465  15.8670 347.8591 5003694 293.1550 336.8920  1.82826582136722
0 SL-12 R/B(2)
1 25465U 98050D   19047.86389837 -.00000093 +00000-0 +00000-0 0  9990
2 25465 015.8674 347.9115 5003726 293.0526 312.8149 01.82826618037364
0 IRIDIUM 82
1 25467U 98051A   19047.75618266 +.00000598 +00000-0 +42134-4 0  9999
2 25467 086.3984 102.3248 0181139 018.1558 342.6022 14.90244987077590
0 IRIDIUM 82
1 25467U 98051A   19048.62908341  .00000605  00000-0  42678-4 0  9994
2 25467  86.3984 101.9258 0181000  15.0498 345.6013 14.90245907 77723
0 INTELSAT 7 (PAS 7)
1 25473U 98052A   19048.38487154 -.00000199  00000-0  00000+0 0  9996
2 25473   4.4851  71.3316 0004670 184.1479 206.3768  0.98212971 74582
0 INTELSAT 7 (PAS 7)
1 25473U 98052A   19047.81138233 -.00000186 +00000-0 +00000-0 0  9991
2 25473 004.4838 071.3340 0004737 183.6330 004.1198 00.98212937074334
0 ORBCOMM FM 21
1 25475U 98053A   19047.87966585 +.00000005 +00000-0 +53002-4 0  9992
2 25475 045.0113 359.2697 0002761 304.5117 055.5468 14.32789098065350
0 ORBCOMM FM 22
1 25476U 98053B   19047.82575217 +.00000019 +00000-0 +58013-4 0  9998
2 25476 045.0108 359.5890 0002819 265.7885 094.2639 14.32874477065364
0 ORBCOMM FM 23
1 25477U 98053C   19047.91858659 -.00000016 +00000-0 +45243-4 0  9992
2 25477 045.0115 000.0843 0002707 279.1422 080.9118 14.32667533065526
0 ORBCOMM FM 24
1 25478U 98053D   19047.92149330 -.00000023 +00000-0 +42915-4 0  9994
2 25478 045.0114 001.3508 0002834 289.7193 070.3348 14.32767237065521
0 ORBCOMM FM 25
1 25479U 98053E   19047.82805305 +.00000047 +00000-0 +68138-4 0  9995
2 25479 045.0105 000.2807 0004956 267.0696 092.9583 14.32783641065805
0 ORBCOMM FM 25
1 25479U 98053E   19048.87395673  .00000026  00000-0  60559-4 0  9999
2 25479  45.0104 355.3644 0004934 271.3681  88.6600 14.32783843 65957
0 ORBCOMM FM 26
1 25480U 98053F   19047.82667606 -.00000020 +00000-0 +43782-4 0  9997
2 25480 045.0099 350.5971 0007409 277.5132 082.4872 14.32603881065799
0 ORBCOMM FM 27
1 25481U 98053G   19047.90814222 +.00000015 +00000-0 +56464-4 0  9999
2 25481 045.0087 359.9140 0003112 324.1934 035.8703 14.32760085065801
0 ORBCOMM FM 28
1 25482U 98053H   19047.91195979 +.00000006 +00000-0 +52691-4 0  9990
2 25482 045.0093 307.6213 0004586 301.2230 058.8167 14.33531012066437
0 PEGASUS R/B(2)
1 25484U 98053K   19047.69746509 -.00000106 +00000-0 +10833-4 0  9992
2 25484 044.5309 118.4059 0065729 264.1622 237.4433 14.41658741074031
0 PEGASUS R/B(2)
1 25484U 98053K   19048.51984913 -.00000103  00000-0  11673-4 0  9997
2 25484  44.5309 114.4509 0065741 268.3657 185.6596 14.41658811 74442
0 MOLNIYA 1-91
1 25485U 98054A   19048.05232200  .00091470  98444-6  60928-3 0  9990
2 25485  62.4501  10.0422 7302413 282.4639  11.1514  2.30891823149640
0 MOLNIYA 1-91
1 25485U 98054A   19048.48536900  .00091078  82851-6  55529-3 0  9991
2 25485  62.4503   9.9554 7302311 282.4707  11.1340  2.30967039149659
0 SL-6 R/B(2)
1 25488U 98054D   19048.42044473  .00013557  56685-6  63713-3 0  9993
2 25488  62.0923  74.1524 7561694 276.9578  10.7302  1.97240379146260
0 STEX
1 25489U 98055A   19047.75649939 +.00000080 +00000-0 +15708-4 0  9991
2 25489 084.9859 131.4030 0008848 198.5576 161.5304 14.48689164075489
0 TAURUS R/B
1 25490U 98055B   19047.64868191 +.00000104 +00000-0 +13630-4 0  9993
2 25490 085.0659 064.5254 0013985 322.3852 037.6382 14.68690506091714
0 TAURUS R/B
1 25490U 98055B   19048.53439057  .00000097  00000-0  12332-4 0  9996
2 25490  85.0659  63.9898 0013901 319.0803  40.9365 14.68690598 92112
